[{"OBJECT_NAME":"SJ-11-03","OBJECT_ID":"2011-030A","EPOCH":"2026-03-09T23:29:54.715200","MEAN_MOTION":14.64220728,"ECCENTRICITY":0.00083094,"INCLINATION":97.9236,"RA_OF_ASC_NODE":36.6626,"ARG_OF_PERICENTER":357.4545,"MEAN_ANOMALY":43.1151,"EPHEMERIS_TYPE":0,"CLASSIFICATION_TYPE":"U","NORAD_CAT_ID":37730,"ELEMENT_SET_NO":999,"REV_AT_EPOCH":78259,"BSTAR":0.00019672092,"MEAN_MOTION_DOT":9.91e-6,"MEAN_MOTION_DDOT":0},{"OBJECT_NAME":"ORBVIEW 1 (MICROLAB)","OBJECT_ID":"1995-017C","EPOCH":"2026-03-09T11:56:57.897312","MEAN_MOTION":14.67183091,"ECCENTRICITY":0.00065613,"INCLINATION":69.9747,"RA_OF_ASC_NODE":104.4639,"ARG_OF_PERICENTER":125.4727,"MEAN_ANOMALY":234.7029,"EPHEMERIS_TYPE":0,"CLASSIFICATION_TYPE":"U","NORAD_CAT_ID":23547,"ELEMENT_SET_NO":999,"REV_AT_EPOCH":64366,"BSTAR":0.00030480878,"MEAN_MOTION_DOT":1.647e-5,"MEAN_MOTION_DDOT":0}]
